{
  "type": "FeatureCollection",
  "features": [
    {
      "type": "Feature",
      "properties": {
        "norad_id": 41026,
        "name": "YAOGAN-28",
        "group": "resource",
        "lat": 34.76783384041409,
        "lon": -36.860167997770574,
        "alt_km": 485.90740700876904,
        "timestamp": "2025-12-26T15:29:39.095563+00:00",
        "meta_object_name": "YAOGAN-28",
        "meta_object_id": "2015-064A",
        "meta_epoch": "2025-12-26T06:59:10.105152",
        "meta_mean_motion": 15.24566569,
        "meta_eccentricity": 0.00126505,
        "meta_inclination": 97.2815,
        "meta_ra_of_asc_node": 137.7029,
        "meta_arg_of_pericenter": 83.0708,
        "meta_mean_anomaly": 277.1969,
        "meta_ephemeris_type": 0,
        "meta_classification_type": "U",
        "meta_norad_cat_id": 41026,
        "meta_element_set_no": 999,
        "meta_rev_at_epoch": 56431,
        "meta_bstar": 0.00033257706,
        "meta_mean_motion_dot": 8.142e-05,
        "meta_mean_motion_ddot": 0,
        "tle_line1": "1 41026U 15064A   25360.29108918  .00008142  00000+0  33258-3 0  9991",
        "tle_line2": "2 41026  97.2815 137.7029 0012650  83.0708 277.1969 15.24566569564315"
      },
      "geometry": {
        "type": "Point",
        "coordinates": [
          -36.860167997770574,
          34.76783384041409
        ]
      }
    },
    {
      "type": "Feature",
      "properties": {
        "norad_id": 41038,
        "name": "YAOGAN-29",
        "group": "resource",
        "lat": -35.821359753521754,
        "lon": 29.70251251934886,
        "alt_km": 627.1675292323789,
        "timestamp": "2025-12-26T15:29:39.095573+00:00",
        "meta_object_name": "YAOGAN-29",
        "meta_object_id": "2015-069A",
        "meta_epoch": "2025-12-26T07:33:36.382752",
        "meta_mean_motion": 14.8289949,
        "meta_eccentricity": 9.69e-05,
        "meta_inclination": 98.0208,
        "meta_ra_of_asc_node": 23.5294,
        "meta_arg_of_pericenter": 159.2025,
        "meta_mean_anomaly": 200.9228,
        "meta_ephemeris_type": 0,
        "meta_classification_type": "U",
        "meta_norad_cat_id": 41038,
        "meta_element_set_no": 999,
        "meta_rev_at_epoch": 54500,
        "meta_bstar": 0.00013867281,
        "meta_mean_motion_dot": 1.07e-05,
        "meta_mean_motion_ddot": 0,
        "tle_line1": "1 41038U 15069A   25360.31500443  .00001070  00000+0  13867-3 0  9998",
        "tle_line2": "2 41038  98.0208  23.5294 0000969 159.2025 200.9228 14.82899490545009"
      },
      "geometry": {
        "type": "Point",
        "coordinates": [
          29.70251251934886,
          -35.821359753521754
        ]
      }
    },
    {
      "type": "Feature",
      "properties": {
        "norad_id": 41167,
        "name": "KENT RIDGE 1",
        "group": "resource",
        "lat": -11.343986992070976,
        "lon": -23.425047610607912,
        "alt_km": 499.92755518243666,
        "timestamp": "2025-12-26T15:29:39.095583+00:00",
        "meta_object_name": "KENT RIDGE 1",
        "meta_object_id": "2015-077B",
        "meta_epoch": "2025-12-25T16:28:00.882048",
        "meta_mean_motion": 15.21731933,
        "meta_eccentricity": 0.00085371,
        "meta_inclination": 14.9792,
        "meta_ra_of_asc_node": 115.0675,
        "meta_arg_of_pericenter": 313.4673,
        "meta_mean_anomaly": 46.4939,
        "meta_ephemeris_type": 0,
        "meta_classification_type": "U",
        "meta_norad_cat_id": 41167,
        "meta_element_set_no": 999,
        "meta_rev_at_epoch": 55461,
        "meta_bstar": 0.00017413045,
        "meta_mean_motion_dot": 4.822e-05,
        "meta_mean_motion_ddot": 0,
        "tle_line1": "1 41167U 15077B   25359.68612132  .00004822  00000+0  17413-3 0  9996",
        "tle_line2": "2 41167  14.9792 115.0675 0008537 313.4673  46.4939 15.21731933554619"
      },
      "geometry": {
        "type": "Point",
        "coordinates": [
          -23.425047610607912,
          -11.343986992070976
        ]
      }
    },
    {
      "type": "Feature",
      "properties": {
        "norad_id": 41194,
        "name": "GAOFEN-4",
        "group": "resource",
        "lat": -0.01335424170102731,
        "lon": 73.46237437707182,
        "alt_km": 35789.33048956598,
        "timestamp": "2025-12-26T15:29:39.095595+00:00",
        "meta_object_name": "GAOFEN-4",
        "meta_object_id": "2015-083A",
        "meta_epoch": "2025-12-26T03:11:38.639904",
        "meta_mean_motion": 1.0026946,
        "meta_eccentricity": 0.00028259,
        "meta_inclination": 0.2025,
        "meta_ra_of_asc_node": 81.9278,
        "meta_arg_of_pericenter": 93.875,
        "meta_mean_anomaly": 72.6955,
        "meta_ephemeris_type": 0,
        "meta_classification_type": "U",
        "meta_norad_cat_id": 41194,
        "meta_element_set_no": 999,
        "meta_rev_at_epoch": 3679,
        "meta_bstar": 0,
        "meta_mean_motion_dot": -3.13e-06,
        "meta_mean_motion_ddot": 0,
        "tle_line1": "1 41194U 15083A   25360.13308611 -.00000313  00000+0  00000+0 0  9991",
        "tle_line2": "2 41194   0.2025  81.9278 0002825  93.8750  72.6955  1.00269460 36791"
      },
      "geometry": {
        "type": "Point",
        "coordinates": [
          73.46237437707182,
          -0.01335424170102731
        ]
      }
    },
    {
      "type": "Feature",
      "properties": {
        "norad_id": 41240,
        "name": "JASON-3",
        "group": "resource",
        "lat": -31.552217379547795,
        "lon": 112.74453727035515,
        "alt_km": 1312.6684697287128,
        "timestamp": "2025-12-26T15:29:39.095607+00:00",
        "meta_object_name": "JASON-3",
        "meta_object_id": "2016-002A",
        "meta_epoch": "2025-12-26T06:21:16.899552",
        "meta_mean_motion": 12.87627127,
        "meta_eccentricity": 0.00073218,
        "meta_inclination": 66.0407,
        "meta_ra_of_asc_node": 129.3893,
        "meta_arg_of_pericenter": 271.6262,
        "meta_mean_anomaly": 88.3918,
        "meta_ephemeris_type": 0,
        "meta_classification_type": "U",
        "meta_norad_cat_id": 41240,
        "meta_element_set_no": 999,
        "meta_rev_at_epoch": 46498,
        "meta_bstar": 0.00015903742,
        "meta_mean_motion_dot": -2.2e-07,
        "meta_mean_motion_ddot": 0,
        "tle_line1": "1 41240U 16002A   25360.26477893 -.00000022  00000+0  15904-3 0  9998",
        "tle_line2": "2 41240  66.0407 129.3893 0007321 271.6262  88.3918 12.87627127464981"
      },
      "geometry": {
        "type": "Point",
        "coordinates": [
          112.74453727035515,
          -31.552217379547795
        ]
      }
    },
    {
      "type": "Feature",
      "properties": {
        "norad_id": 41335,
        "name": "SENTINEL-3A",
        "group": "resource",
        "lat": 79.26809788214904,
        "lon": -61.28553466787717,
        "alt_km": 794.6470077040112,
        "timestamp": "2025-12-26T15:29:39.095617+00:00",
        "meta_object_name": "SENTINEL-3A",
        "meta_object_id": "2016-011A",
        "meta_epoch": "2025-12-26T06:37:42.853152",
        "meta_mean_motion": 14.26735837,
        "meta_eccentricity": 8.844e-05,
        "meta_inclination": 98.6296,
        "meta_ra_of_asc_node": 65.0998,
        "meta_arg_of_pericenter": 97.6461,
        "meta_mean_anomaly": 262.482,
        "meta_ephemeris_type": 0,
        "meta_classification_type": "U",
        "meta_norad_cat_id": 41335,
        "meta_element_set_no": 999,
        "meta_rev_at_epoch": 51340,
        "meta_bstar": 7.5955615e-05,
        "meta_mean_motion_dot": 1.4e-06,
        "meta_mean_motion_ddot": 0,
        "tle_line1": "1 41335U 16011A   25360.27619043  .00000140  00000+0  75956-4 0  9993",
        "tle_line2": "2 41335  98.6296  65.0998 0000884  97.6461 262.4820 14.26735837513401"
      },
      "geometry": {
        "type": "Point",
        "coordinates": [
          -61.28553466787717,
          79.26809788214904
        ]
      }
    },
    {
      "type": "Feature",
      "properties": {
        "norad_id": 41556,
        "name": "ZIYUAN 3-02 (ZY 3-02)",
        "group": "resource",
        "lat": -70.84744842601249,
        "lon": -127.40399388861279,
        "alt_km": 505.1374269608623,
        "timestamp": "2025-12-26T15:29:39.095627+00:00",
        "meta_object_name": "ZIYUAN 3-02 (ZY 3-02)",
        "meta_object_id": "2016-033A",
        "meta_epoch": "2025-12-26T06:29:44.253312",
        "meta_mean_motion": 15.21247096,
        "meta_eccentricity": 0.00115361,
        "meta_inclination": 97.4023,
        "meta_ra_of_asc_node": 74.2105,
        "meta_arg_of_pericenter": 195.7365,
        "meta_mean_anomaly": 164.3514,
        "meta_ephemeris_type": 0,
        "meta_classification_type": "U",
        "meta_norad_cat_id": 41556,
        "meta_element_set_no": 999,
        "meta_rev_at_epoch": 53169,
        "meta_bstar": 0.00032868399,
        "meta_mean_motion_dot": 7.286e-05,
        "meta_mean_motion_ddot": 0,
        "tle_line1": "1 41556U 16033A   25360.27065108  .00007286  00000+0  32868-3 0  9991",
        "tle_line2": "2 41556  97.4023  74.2105 0011536 195.7365 164.3514 15.21247096531694"
      },
      "geometry": {
        "type": "Point",
        "coordinates": [
          -127.40399388861279,
          -70.84744842601249
        ]
      }
    }
  ]
}